[{"OBJECT_NAME":"GEESAT-2 05","OBJECT_ID":"2024-023E","EPOCH":"2026-03-09T21:48:09.892512","MEAN_MOTION":14.82877169,"ECCENTRICITY":0.00107889,"INCLINATION":50.0044,"RA_OF_ASC_NODE":93.9515,"ARG_OF_PERICENTER":41.3902,"MEAN_ANOMALY":318.7852,"EPHEMERIS_TYPE":0,"CLASSIFICATION_TYPE":"U","NORAD_CAT_ID":58909,"ELEMENT_SET_NO":999,"REV_AT_EPOCH":11418,"BSTAR":0.00016431229,"MEAN_MOTION_DOT":1.12e-5,"MEAN_MOTION_DDOT":0},{"OBJECT_NAME":"CZ-4B DEB","OBJECT_ID":"1999-057NJ","EPOCH":"2026-03-07T09:07:04.154880","MEAN_MOTION":14.74959066,"ECCENTRICITY":0.00453266,"INCLINATION":98.3503,"RA_OF_ASC_NODE":118.5802,"ARG_OF_PERICENTER":298.5902,"MEAN_ANOMALY":123.3003,"EPHEMERIS_TYPE":0,"CLASSIFICATION_TYPE":"U","NORAD_CAT_ID":29039,"ELEMENT_SET_NO":999,"REV_AT_EPOCH":23249,"BSTAR":0.00098320995,"MEAN_MOTION_DOT":6.665e-5,"MEAN_MOTION_DDOT":0}]
